NORAD_CAT_ID,OBJECT_NAME,OBJECT_TYPE,EPOCH,MEAN_MOTION,ECCENTRICITY,INCLINATION,RA_OF_ASC_NODE,ARG_OF_PERICENTER,MEAN_ANOMALY,BSTAR,MEAN_MOTION_DOT,MEAN_MOTION_DDOT,TLE_LINE0,TLE_LINE1,TLE_LINE2,SEMIMAJOR_AXIS,PERIOD,APOGEE,PERIGEE,DECAYED
52500.0,STARLINK-3866,PAYLOAD,2023-02-23 22:27:40,15.08850853,0.000116,53.217,341.001,80.8363,279.276,0.00048663,7.468e-05,0.0,0 STARLINK-3866,1 52500U 22049BB  23054.93589100  .00007468  00000-0  48663-3 0  9993,2 52500  53.2170 341.0010 0001160  80.8363 279.2760 15.08850853 45158,6917.847,95.437,540.515,538.91,0.0
52500.0,STARLINK-3866,PAYLOAD,2023-02-24 04:49:13,15.08868808,0.0001171,53.2173,339.8111,85.4893,274.6233,0.0011243,0.00017665,0.0,0 STARLINK-3866,1 52500U 22049BB  23055.20084682  .00017665  00000-0  11243-2 0  9992,2 52500  53.2173 339.8111 0001171  85.4893 274.6233 15.08868808 45039,6917.792,95.436,540.467,538.847,0.0
52500.0,STARLINK-3866,PAYLOAD,2023-02-24 19:07:41,15.08842232,7.46e-05,53.2178,337.135,87.0475,273.0602,-4.4428e-06,-3.58e-06,0.0,0 STARLINK-3866,1 52500U 22049BB  23055.79700903 -.00000358  00000-0 -44428-5 0  9994,2 52500  53.2178 337.1350 0000746  87.0475 273.0602 15.08842232 45127,6917.874,95.437,540.255,539.222,0.0
52500.0,STARLINK-3866,PAYLOAD,2023-02-25 01:29:14,15.08843738,8.46e-05,53.2176,335.946,83.0589,277.05,0.00021159,3.082e-05,0.0,0 STARLINK-3866,1 52500U 22049BB  23056.06196949  .00003082  00000-0  21159-3 0  9993,2 52500  53.2176 335.9460 0000846  83.0589 277.0500 15.08843738 45321,6917.869,95.437,540.319,539.149,0.0
52500.0,STARLINK-3866,PAYLOAD,2023-02-25 04:40:00,15.0884651,0.0001058,53.2177,335.3513,89.1446,270.9667,0.000403,6.133e-05,0.0,0 STARLINK-3866,1 52500U 22049BB  23056.19444937  .00006133  00000-0  40300-3 0  9999,2 52500  53.2177 335.3513 0001058  89.1446 270.9667 15.08846510 45181,6917.86,95.437,540.457,538.994,0.0
52500.0,STARLINK-3866,PAYLOAD,2023-02-26 01:20:01,15.08846643,0.0001122,53.2169,331.4875,89.6534,270.4587,0.00059353,9.172e-05,0.0,0 STARLINK-3866,1 52500U 22049BB  23057.05557097  .00009172  00000-0  59353-3 0  9991,2 52500  53.2169 331.4875 0001122  89.6534 270.4587 15.08846643 45313,6917.86,95.437,540.501,538.949,0.0
52500.0,STARLINK-3866,PAYLOAD,2023-02-26 17:13:52,15.08857818,0.0001034,53.2169,328.5137,84.2536,275.8574,0.00058998,9.119e-05,0.0,0 STARLINK-3866,1 52500U 22049BB  23057.71796665  .00009119  00000-0  58998-3 0  9995,2 52500  53.2169 328.5137 0001034  84.2536 275.8574 15.08857818 45575,6917.826,95.436,540.406,538.976,0.0
52500.0,STARLINK-3866,PAYLOAD,2023-02-27 04:21:33,15.0889299,0.0001221,53.2172,326.4309,93.3713,266.7419,0.0015557,0.00024594,0.0,0 STARLINK-3866,1 52500U 22049BB  23058.18163352  .00024594  00000-0  15557-2 0  9995,2 52500  53.2172 326.4309 0001221  93.3713 266.7419 15.08892990 45648,6917.718,95.434,540.428,538.739,0.0
52500.0,STARLINK-3866,PAYLOAD,2023-02-28 02:36:56,15.08871471,0.0002146,53.2176,322.263,72.7797,287.343,0.00049447,7.597e-05,0.0,0 STARLINK-3866,1 52500U 22049BB  23059.10898465  .00007597  00000-0  49447-3 0  9998,2 52500  53.2176 322.2630 0002146  72.7797 287.3430 15.08871471 45781,6917.784,95.436,541.134,538.165,0.0
52500.0,STARLINK-3866,PAYLOAD,2023-02-28 21:41:36,15.08786406,0.0001549,53.2173,318.6986,87.2167,272.9003,-0.00022749,-3.901e-05,0.0,0 STARLINK-3866,1 52500U 22049BB  23059.90389448 -.00003901  00000-0 -22749-3 0  9995,2 52500  53.2173 318.6986 0001549  87.2167 272.9003 15.08786406 45744,6918.044,95.441,540.981,538.838,0.0
52500.0,STARLINK-3866,PAYLOAD,2023-02-28 23:17:00,15.08788507,0.0002145,53.2174,318.4013,75.4091,284.7139,1.3816e-06,-2.66e-06,0.0,0 STARLINK-3866,1 52500U 22049BB  23059.97013941 -.00000266  00000-0  13816-5 0  9991,2 52500  53.2174 318.4013 0002145  75.4091 284.7139 15.08788507 45916,6918.038,95.441,541.387,538.419,0.0
52500.0,STARLINK-3866,PAYLOAD,2023-03-01 21:32:25,15.08818987,0.00017,53.2169,314.2387,71.0748,289.0429,0.0023622,0.00037485,0.0,0 STARLINK-3866,1 52500U 22049BB  23060.89751347  .00037485  00000-0  23622-2 0  9998,2 52500  53.2169 314.2387 0001700  71.0748 289.0429 15.08818987 45898,6917.945,95.439,540.986,538.634,0.0
52500.0,STARLINK-3866,PAYLOAD,2023-03-02 02:18:34,15.0884071,0.0002131,53.2167,313.3449,67.3862,292.7355,0.0023846,0.00037868,0.0,0 STARLINK-3866,1 52500U 22049BB  23061.09623330  .00037868  00000-0  23846-2 0  9994,2 52500  53.2167 313.3449 0002131  67.3862 292.7355 15.08840710 46089,6917.878,95.438,541.217,538.269,0.0
52500.0,STARLINK-3866,PAYLOAD,2023-03-02 19:47:47,15.08868361,0.0001871,53.216,310.0766,59.7475,300.3702,0.00041621,6.347e-05,0.0,0 STARLINK-3866,1 52500U 22049BB  23061.82486111  .00006347  00000-0  41621-3 0  9999,2 52500  53.2160 310.0766 0001871  59.7475 300.3702 15.08868361 46032,6917.794,95.436,540.953,538.364,0.0
52500.0,STARLINK-3866,PAYLOAD,2023-03-03 02:09:19,15.08885402,0.0001864,53.2164,308.8858,60.7302,299.3877,0.0010547,0.00016558,0.0,0 STARLINK-3866,1 52500U 22049BB  23062.08981361  .00016558  00000-0  10547-2 0  9992,2 52500  53.2164 308.8858 0001864  60.7302 299.3877 15.08885402 46233,6917.742,95.435,540.896,538.317,0.0
52500.0,STARLINK-3866,PAYLOAD,2023-03-03 21:13:57,15.08871091,0.0001492,53.217,305.3177,77.625,282.4909,0.001734,0.0002744,0.0,0 STARLINK-3866,1 52500U 22049BB  23062.88468864  .00027440  00000-0  17340-2 0  9998,2 52500  53.2170 305.3177 0001492  77.6250 282.4909 15.08871091 46195,6917.785,95.436,540.682,538.618,0.0
52500.0,STARLINK-3866,PAYLOAD,2023-03-03 22:49:20,15.08872287,0.0001545,53.2171,305.0209,66.2896,293.8258,0.0017434,0.00027592,0.0,0 STARLINK-3866,1 52500U 22049BB  23062.95092787  .00027592  00000-0  17434-2 0  9995,2 52500  53.2171 305.0209 0001545  66.2896 293.8258 15.08872287 46368,6917.782,95.436,540.715,538.578,0.0
52500.0,STARLINK-3866,PAYLOAD,2023-03-04 02:00:06,15.08883778,0.0001623,53.2171,304.4257,67.0436,293.0727,0.0019488,0.00030901,0.0,0 STARLINK-3866,1 52500U 22049BB  23063.08340413  .00030901  00000-0  19488-2 0  9991,2 52500  53.2171 304.4257 0001623  67.0436 293.0727 15.08883778 46225,6917.747,95.435,540.734,538.489,0.0
52500.0,STARLINK-3866,PAYLOAD,2023-03-04 22:40:08,15.08833513,0.0001772,53.2168,300.5596,87.4878,272.6317,0.0015106,0.00023831,0.0,0 STARLINK-3866,1 52500U 22049BB  23063.94453950  .00023831  00000-0  15106-2 0  9994,2 52500  53.2168 300.5596 0001772  87.4878 272.6317 15.08833513 46517,6917.9,95.438,540.991,538.539,0.0
52500.0,STARLINK-3866,PAYLOAD,2023-03-05 22:30:55,15.08850771,0.0001269,53.216,296.1012,88.2518,271.8619,0.001063,0.00016675,0.0,0 STARLINK-3866,1 52500U 22049BB  23064.93814324  .00016675  00000-0  10630-2 0  9995,2 52500  53.2160 296.1012 0001269  88.2518 271.8619 15.08850771 46660,6917.847,95.437,540.59,538.835,0.0
52500.0,STARLINK-3866,PAYLOAD,2023-03-06 16:00:10,15.08843828,0.0001834,53.2163,292.8283,80.42,279.7,0.0006003,9.28e-05,0.0,0 STARLINK-3866,1 52500U 22049BB  23065.66678569  .00009280  00000-0  60030-3 0  9999,2 52500  53.2163 292.8283 0001834  80.4200 279.7000 15.08843828 46774,6917.869,95.437,541.002,538.465,0.0
52500.0,STARLINK-3866,PAYLOAD,2023-03-07 01:32:29,15.08850259,0.0001916,53.2155,291.0437,79.1551,280.9657,0.00072812,0.00011322,0.0,0 STARLINK-3866,1 52500U 22049BB  23066.06422476  .00011322  00000-0  72812-3 0  9999,2 52500  53.2155 291.0437 0001916  79.1551 280.9657 15.08850259 46679,6917.849,95.437,541.039,538.389,0.0
52500.0,STARLINK-3866,PAYLOAD,2023-03-08 01:23:15,15.08850047,0.0001513,53.2143,286.5811,85.1792,274.9373,0.0003533,5.341e-05,0.0,0 STARLINK-3866,1 52500U 22049BB  23067.05781981  .00005341  00000-0  35330-3 0  9996,2 52500  53.2143 286.5811 0001513  85.1792 274.9373 15.08850047 46985,6917.85,95.437,540.761,538.668,0.0
52500.0,STARLINK-3866,PAYLOAD,2023-03-08 20:27:53,15.08841038,0.0002001,53.2106,283.0167,74.8577,285.2637,0.00016718,2.374e-05,0.0,0 STARLINK-3866,1 52500U 22049BB  23067.85270408  .00002374  00000-0  16718-3 0  9993,2 52500  53.2106 283.0167 0002001  74.8577 285.2637 15.08841038 46943,6917.877,95.437,541.126,538.358,0.0
52500.0,STARLINK-3866,PAYLOAD,2023-03-08 23:38:39,15.08839843,0.0001387,53.2128,282.4189,87.89,272.2251,7.3449e-05,8.81e-06,0.0,0 STARLINK-3866,1 52500U 22049BB  23067.98518466  .00000881  00000-0  73449-4 0  9992,2 52500  53.2128 282.4189 0001387  87.8900 272.2251 15.08839843 47124,6917.881,95.438,540.705,538.786,0.0
52500.0,STARLINK-3866,PAYLOAD,2023-03-09 20:18:40,15.08843996,0.0001221,53.2141,278.5524,89.9068,270.2064,0.00028031,4.177e-05,0.0,0 STARLINK-3866,1 52500U 22049BB  23068.84630237  .00004177  00000-0  28031-3 0  9997,2 52500  53.2141 278.5524 0001221  89.9068 270.2064 15.08843996 47093,6917.868,95.437,540.578,538.889,0.0
52500.0,STARLINK-3866,PAYLOAD,2023-03-09 23:29:26,15.08857492,0.0001213,53.2163,277.9591,80.0372,280.0757,0.00045959,7.037e-05,0.0,0 STARLINK-3866,1 52500U 22049BB  23068.97877707  .00007037  00000-0  45959-3 0  9992,2 52500  53.2163 277.9591 0001213  80.0372 280.0757 15.08857492 47279,6917.827,95.436,540.531,538.853,0.0
52500.0,STARLINK-3866,PAYLOAD,2023-03-10 07:26:22,15.08839959,0.000147,53.2146,276.4707,93.83,266.2861,0.00014813,2.07e-05,0.0,0 STARLINK-3866,1 52500U 22049BB  23069.30998467  .00002070  00000-0  14813-3 0  9994,2 52500  53.2146 276.4707 0001470  93.8300 266.2861 15.08839959 47327,6917.881,95.438,540.762,538.729,0.0
52500.0,STARLINK-3866,PAYLOAD,2023-03-10 20:09:28,15.08834699,0.0001347,53.2174,274.093,97.9889,262.1256,-1.4463e-05,-5.18e-06,0.0,0 STARLINK-3866,1 52500U 22049BB  23069.83990741 -.00000518  00000-0 -14463-4 0  9998,2 52500  53.2174 274.0930 0001347  97.9889 262.1256 15.08834699 47240,6917.897,95.438,540.693,538.83,0.0
52500.0,STARLINK-3866,PAYLOAD,2023-03-10 23:20:14,15.08838908,0.0001324,53.2165,273.4966,102.9174,257.1967,5.0283e-05,5.12e-06,0.0,0 STARLINK-3866,1 52500U 22049BB  23069.97238648  .00000512  00000-0  50283-4 0  9996,2 52500  53.2165 273.4966 0001324 102.9174 257.1967 15.08838908 47421,6917.884,95.438,540.665,538.833,0.0
